{
  "type": "FeatureCollection",
  "features": [
    {
      "type": "Feature",
      "properties": {
        "norad_id": 31843,
        "name": "FENGYUN 1C DEB",
        "group": "fengyun-1c-debris",
        "lat": 19.694238103340812,
        "lon": 102.953416276755,
        "alt_km": 1516.4271160872822,
        "timestamp": "2025-12-04T03:47:54.827422+00:00",
        "meta_object_name": "FENGYUN 1C DEB",
        "meta_object_id": "1999-025CJH",
        "meta_epoch": "2025-12-02T15:01:05.389248",
        "meta_mean_motion": 13.33462656,
        "meta_eccentricity": 0.06419114,
        "meta_inclination": 99.2813,
        "meta_ra_of_asc_node": 278.1993,
        "meta_arg_of_pericenter": 18.9524,
        "meta_mean_anomaly": 343.4355,
        "meta_ephemeris_type": 0,
        "meta_classification_type": "U",
        "meta_norad_cat_id": 31843,
        "meta_element_set_no": 999,
        "meta_rev_at_epoch": 64561,
        "meta_bstar": 0.0084044243,
        "meta_mean_motion_dot": 0.00013435,
        "meta_mean_motion_ddot": 0,
        "tle_line1": "1 31843U 99025CJH 25336.62575682  .00013435  00000+0  84044-2 0  9991",
        "tle_line2": "2 31843  99.2813 278.1993 0641911  18.9524 343.4355 13.33462656645611"
      },
      "geometry": {
        "type": "Point",
        "coordinates": [
          102.953416276755,
          19.694238103340812
        ]
      }
    },
    {
      "type": "Feature",
      "properties": {
        "norad_id": 31844,
        "name": "FENGYUN 1C DEB",
        "group": "fengyun-1c-debris",
        "lat": 55.53122497131354,
        "lon": 160.79567023400102,
        "alt_km": 844.3301155090885,
        "timestamp": "2025-12-04T03:47:54.827432+00:00",
        "meta_object_name": "FENGYUN 1C DEB",
        "meta_object_id": "1999-025CJJ",
        "meta_epoch": "2025-12-03T05:14:22.488576",
        "meta_mean_motion": 14.19683273,
        "meta_eccentricity": 0.0103744,
        "meta_inclination": 100.3014,
        "meta_ra_of_asc_node": 324.3406,
        "meta_arg_of_pericenter": 16.8564,
        "meta_mean_anomaly": 343.6013,
        "meta_ephemeris_type": 0,
        "meta_classification_type": "U",
        "meta_norad_cat_id": 31844,
        "meta_element_set_no": 999,
        "meta_rev_at_epoch": 95197,
        "meta_bstar": 0.0010371,
        "meta_mean_motion_dot": 2.257e-05,
        "meta_mean_motion_ddot": 0,
        "tle_line1": "1 31844U 99025CJJ 25337.21831584  .00002257  00000+0  10371-2 0  9996",
        "tle_line2": "2 31844 100.3014 324.3406 0103744  16.8564 343.6013 14.19683273951977"
      },
      "geometry": {
        "type": "Point",
        "coordinates": [
          160.79567023400102,
          55.53122497131354
        ]
      }
    },
    {
      "type": "Feature",
      "properties": {
        "norad_id": 31850,
        "name": "FENGYUN 1C DEB",
        "group": "fengyun-1c-debris",
        "lat": 61.66491701395287,
        "lon": -142.362392392686,
        "alt_km": 412.837389665915,
        "timestamp": "2025-12-04T03:47:54.827442+00:00",
        "meta_object_name": "FENGYUN 1C DEB",
        "meta_object_id": "1999-025CJQ",
        "meta_epoch": "2025-12-01T20:22:02.943552",
        "meta_mean_motion": 15.30101439,
        "meta_eccentricity": 0.00812319,
        "meta_inclination": 98.576,
        "meta_ra_of_asc_node": 18.7204,
        "meta_arg_of_pericenter": 126.804,
        "meta_mean_anomaly": 234.0686,
        "meta_ephemeris_type": 0,
        "meta_classification_type": "U",
        "meta_norad_cat_id": 31850,
        "meta_element_set_no": 999,
        "meta_rev_at_epoch": 65662,
        "meta_bstar": 0.0030371195,
        "meta_mean_motion_dot": 0.00098889,
        "meta_mean_motion_ddot": 0,
        "tle_line1": "1 31850U 99025CJQ 25335.84864518  .00098889  00000+0  30371-2 0  9991",
        "tle_line2": "2 31850  98.5760  18.7204 0081231 126.8040 234.0686 15.30101439656623"
      },
      "geometry": {
        "type": "Point",
        "coordinates": [
          -142.362392392686,
          61.66491701395287
        ]
      }
    },
    {
      "type": "Feature",
      "properties": {
        "norad_id": 31854,
        "name": "FENGYUN 1C DEB",
        "group": "fengyun-1c-debris",
        "lat": -46.493162369398874,
        "lon": 152.15483049073504,
        "alt_km": 865.4380469804964,
        "timestamp": "2025-12-04T03:47:54.827470+00:00",
        "meta_object_name": "FENGYUN 1C DEB",
        "meta_object_id": "1999-025CJU",
        "meta_epoch": "2025-12-03T06:11:08.380032",
        "meta_mean_motion": 14.03057185,
        "meta_eccentricity": 0.0072008,
        "meta_inclination": 98.8476,
        "meta_ra_of_asc_node": 340.7241,
        "meta_arg_of_pericenter": 167.2323,
        "meta_mean_anomaly": 193.0688,
        "meta_ephemeris_type": 0,
        "meta_classification_type": "U",
        "meta_norad_cat_id": 31854,
        "meta_element_set_no": 999,
        "meta_rev_at_epoch": 69139,
        "meta_bstar": 0.00034596,
        "meta_mean_motion_dot": 5.08e-06,
        "meta_mean_motion_ddot": 0,
        "tle_line1": "1 31854U 99025CJU 25337.25773588  .00000508  00000+0  34596-3 0  9993",
        "tle_line2": "2 31854  98.8476 340.7241 0072008 167.2323 193.0688 14.03057185691394"
      },
      "geometry": {
        "type": "Point",
        "coordinates": [
          152.15483049073504,
          -46.493162369398874
        ]
      }
    },
    {
      "type": "Feature",
      "properties": {
        "norad_id": 31857,
        "name": "FENGYUN 1C DEB",
        "group": "fengyun-1c-debris",
        "lat": 0.6294861299497985,
        "lon": -169.08502788763298,
        "alt_km": 1164.2633506012035,
        "timestamp": "2025-12-04T03:47:54.827481+00:00",
        "meta_object_name": "FENGYUN 1C DEB",
        "meta_object_id": "1999-025CJX",
        "meta_epoch": "2025-12-01T20:13:56.835552",
        "meta_mean_motion": 13.61858254,
        "meta_eccentricity": 0.03084927,
        "meta_inclination": 96.1896,
        "meta_ra_of_asc_node": 9.3724,
        "meta_arg_of_pericenter": 312.5702,
        "meta_mean_anomaly": 44.9786,
        "meta_ephemeris_type": 0,
        "meta_classification_type": "U",
        "meta_norad_cat_id": 31857,
        "meta_element_set_no": 999,
        "meta_rev_at_epoch": 61481,
        "meta_bstar": 0.0021184073,
        "meta_mean_motion_dot": 2.215e-05,
        "meta_mean_motion_ddot": 0,
        "tle_line1": "1 31857U 99025CJX 25335.84301893  .00002215  00000+0  21184-2 0  9990",
        "tle_line2": "2 31857  96.1896   9.3724 0308492 312.5702  44.9786 13.61858254614817"
      },
      "geometry": {
        "type": "Point",
        "coordinates": [
          -169.08502788763298,
          0.6294861299497985
        ]
      }
    },
    {
      "type": "Feature",
      "properties": {
        "norad_id": 31861,
        "name": "FENGYUN 1C DEB",
        "group": "fengyun-1c-debris",
        "lat": 39.09526843180059,
        "lon": 158.8284332307311,
        "alt_km": 1515.660733485348,
        "timestamp": "2025-12-04T03:47:54.827503+00:00",
        "meta_object_name": "FENGYUN 1C DEB",
        "meta_object_id": "1999-025CKB",
        "meta_epoch": "2025-11-30T18:20:57.621120",
        "meta_mean_motion": 13.30200627,
        "meta_eccentricity": 0.04966148,
        "meta_inclination": 102.3423,
        "meta_ra_of_asc_node": 165.0071,
        "meta_arg_of_pericenter": 230.9853,
        "meta_mean_anomaly": 124.6046,
        "meta_ephemeris_type": 0,
        "meta_classification_type": "U",
        "meta_norad_cat_id": 31861,
        "meta_element_set_no": 999,
        "meta_rev_at_epoch": 66608,
        "meta_bstar": 0.0034105388,
        "meta_mean_motion_dot": 3.105e-05,
        "meta_mean_motion_ddot": 0,
        "tle_line1": "1 31861U 99025CKB 25334.76455580  .00003105  00000+0  34105-2 0  9994",
        "tle_line2": "2 31861 102.3423 165.0071 0496614 230.9853 124.6046 13.30200627666089"
      },
      "geometry": {
        "type": "Point",
        "coordinates": [
          158.8284332307311,
          39.09526843180059
        ]
      }
    },
    {
      "type": "Feature",
      "properties": {
        "norad_id": 31877,
        "name": "FENGYUN 1C DEB",
        "group": "fengyun-1c-debris",
        "lat": -15.439971236807336,
        "lon": 49.524094397417386,
        "alt_km": 509.7569157680582,
        "timestamp": "2025-12-04T03:47:54.827522+00:00",
        "meta_object_name": "FENGYUN 1C DEB",
        "meta_object_id": "1999-025CKC",
        "meta_epoch": "2025-12-02T10:16:26.842944",
        "meta_mean_motion": 15.01124585,
        "meta_eccentricity": 0.0104713,
        "meta_inclination": 99.0053,
        "meta_ra_of_asc_node": 45.0099,
        "meta_arg_of_pericenter": 313.1217,
        "meta_mean_anomaly": 46.128,
        "meta_ephemeris_type": 0,
        "meta_classification_type": "U",
        "meta_norad_cat_id": 31877,
        "meta_element_set_no": 999,
        "meta_rev_at_epoch": 98887,
        "meta_bstar": 0.00088700299,
        "meta_mean_motion_dot": 0.00012703,
        "meta_mean_motion_ddot": 0,
        "tle_line1": "1 31877U 99025CKC 25336.42808846  .00012703  00000+0  88700-3 0  9998",
        "tle_line2": "2 31877  99.0053  45.0099 0104713 313.1217  46.1280 15.01124585988878"
      },
      "geometry": {
        "type": "Point",
        "coordinates": [
          49.524094397417386,
          -15.439971236807336
        ]
      }
    }
  ]
}